IRIDIUM 57              
1 25273U 98019B   25030.53267727  .00000747  00000+0  25198-3 0  9990
2 25273  86.3974 202.8722 0002033  93.1594 266.9835 14.35708053405240
IRIDIUM 63              
1 25286U 98021B   25030.74118657  .00001037  00000+0  34801-3 0  9991
2 25286  86.4027 139.7827 0002010  90.0352 270.1075 14.36355580404113
IRIDIUM 69              
1 25319U 98026A   25030.75683319  .00001339  00000+0  41300-3 0  9993
2 25319  86.4032 153.4636 0004243 107.1013 253.0651 14.40720719403272
IRIDIUM 71              
1 25320U 98026B   25030.78293200  .00001100  00000+0  33679-3 0  9990
2 25320  86.4027 148.1743 0003076 138.6237 221.5196 14.40942763403806
IRIDIUM 73              
1 25344U 98032C   25030.46777611  .00001340  00000+0  33120-3 0  9998
2 25344  86.4408 105.3268 0002871  96.5023 263.6510 14.51393855410886
IRIDIUM 82              
1 25467U 98051A   25030.83647103  .00031047  00000+0  11205-2 0  9994
2 25467  86.3744 176.7684 0102038  95.1875 266.1024 15.23470552402984
